CUTE-1.7+APD II (CO-65) 
1 32785U 08021C   26116.86476890  .00006465  00000+0  41321-3 0  9994
2 32785  97.8255  97.2453 0008384 190.9806 169.1240 15.08956703977458
SEEDS II (CO-66)        
1 32791U 08021J   26116.72639418  .00022770  00000+0  76219-3 0  9994
2 32791  97.7529 112.2424 0004971 114.0529 246.1231 15.30959981979411
YUBILEINY (RS30)        
1 32953U 08025A   26116.83391910  .00000013  00000+0  19761-4 0  9998
2 32953  82.5072  27.3791 0020634  63.9170 296.4031 12.43177755813311
KKS-1 (KISEKI)          
1 33499U 09002H   26116.77748382  .00001528  00000+0  19487-3 0  9998
2 33499  98.1191  38.4111 0009317  95.5558 264.6717 14.82986998928572
SWISSCUBE               
1 35932U 09051B   26116.71696093  .00001169  00000+0  24105-3 0  9995
2 35932  98.4066  23.7054 0007358  23.3426 336.8108 14.62378414881636
BEESAT-1                
1 35933U 09051C   26116.69989417  .00000986  00000+0  20802-3 0  9994
2 35933  98.3995  23.4304 0006112  38.3202 321.8431 14.61633310881661
ITUPSAT1                
1 35935U 09051E   26116.71435405  .00000902  00000+0  19660-3 0  9990
2 35935  98.4081  22.6910 0008454  45.2034 314.9852 14.60360188881226
XIWANG-1 (HOPE-1)       
1 36122U 09072B   26116.86848137 -.00000310  00000+0 -69569-3 0  9996
2 36122 100.3986  71.5297 0007511 356.1436   3.9618 13.16436287786252
O/OREOS (USA 219)       
1 37224U 10062C   26116.62560278  .00002576  00000+0  24989-3 0  9993
2 37224  71.9713 197.1126 0014177 172.6604 187.4776 14.93532578108940
JUGNU                   
1 37839U 11058B   26116.69613100  .00000479  00000+0  11031-3 0  9995
2 37839  19.9610 261.2530 0018441 227.8853 160.6919 14.13760882751735
SRMSAT                  
1 37841U 11058D   26116.82887624  .00000422  00000+0  85256-4 0  9996
2 37841  19.9735  10.3299 0011674 359.3388  61.7748 14.11563225750556
STRAND-1                
1 39090U 13009E   26116.46574296  .00000307  00000+0  11755-3 0  9994
2 39090  98.3914 297.9758 0009220  32.9650 327.2110 14.37131572689634
ZACUBE-1 (TSHEPISOSAT)  
1 39417U 13066B   26116.87586218  .00005604  00000+0  43768-3 0  9996
2 39417  97.8120  78.9374 0044121  64.7219 295.8566 15.00754252673033
GOMX-1                  
1 39430U 13066Q   26116.83926581  .00001524  00000+0  23607-3 0  9995
2 39430  97.6529 320.5357 0127605 242.2211 116.6011 14.69261785662378
CUBEBUG-2 (LO-74)       
1 39440U 13066AA  26116.81155963  .00004429  00000+0  41417-3 0  9998
2 39440  97.8872  65.6004 0057390 196.1145 163.8251 14.93396714669324
FUNCUBE-1 (AO-73)       
1 39444U 13066AE  26116.86959253  .00010608  00000+0  66839-3 0  9992
2 39444  97.8240  87.2818 0037414  21.1117 339.1645 15.08754845671925
UWE-3                   
1 39446U 13066AG  26116.80778279  .00004242  00000+0  36826-3 0  9995
2 39446  97.8653  72.5667 0050581 129.9382 230.6299 14.96591998669892
