[{"OBJECT_NAME":"CUTE-1.7+APD II (CO-65)","OBJECT_ID":"2008-021C","EPOCH":"2026-04-26T20:45:16.032960","MEAN_MOTION":15.08956703,"ECCENTRICITY":0.0008384,"INCLINATION":97.8255,"RA_OF_ASC_NODE":97.2453,"ARG_OF_PERICENTER":190.9806,"MEAN_ANOMALY":169.124,"EPHEMERIS_TYPE":0,"CLASSIFICATION_TYPE":"U","NORAD_CAT_ID":32785,"ELEMENT_SET_NO":999,"REV_AT_EPOCH":97745,"BSTAR":0.00041321,"MEAN_MOTION_DOT":6.465e-5,"MEAN_MOTION_DDOT":0},{"OBJECT_NAME":"SEEDS II (CO-66)","OBJECT_ID":"2008-021J","EPOCH":"2026-04-26T17:26:00.457152","MEAN_MOTION":15.30959981,"ECCENTRICITY":0.0004971,"INCLINATION":97.7529,"RA_OF_ASC_NODE":112.2424,"ARG_OF_PERICENTER":114.0529,"MEAN_ANOMALY":246.1231,"EPHEMERIS_TYPE":0,"CLASSIFICATION_TYPE":"U","NORAD_CAT_ID":32791,"ELEMENT_SET_NO":999,"REV_AT_EPOCH":97941,"BSTAR":0.00076219,"MEAN_MOTION_DOT":0.0002277,"MEAN_MOTION_DDOT":0},{"OBJECT_NAME":"YUBILEINY (RS30)","OBJECT_ID":"2008-025A","EPOCH":"2026-04-26T20:00:50.610240","MEAN_MOTION":12.43177755,"ECCENTRICITY":0.0020634,"INCLINATION":82.5072,"RA_OF_ASC_NODE":27.3791,"ARG_OF_PERICENTER":63.917,"MEAN_ANOMALY":296.4031,"EPHEMERIS_TYPE":0,"CLASSIFICATION_TYPE":"U","NORAD_CAT_ID":32953,"ELEMENT_SET_NO":999,"REV_AT_EPOCH":81331,"BSTAR":1.9761e-5,"MEAN_MOTION_DOT":1.3e-7,"MEAN_MOTION_DDOT":0},{"OBJECT_NAME":"KKS-1 (KISEKI)","OBJECT_ID":"2009-002H","EPOCH":"2026-04-26T18:39:34.602048","MEAN_MOTION":14.82986998,"ECCENTRICITY":0.0009317,"INCLINATION":98.1191,"RA_OF_ASC_NODE":38.4111,"ARG_OF_PERICENTER":95.5558,"MEAN_ANOMALY":264.6717,"EPHEMERIS_TYPE":0,"CLASSIFICATION_TYPE":"U","NORAD_CAT_ID":33499,"ELEMENT_SET_NO":999,"REV_AT_EPOCH":92857,"BSTAR":0.00019487,"MEAN_MOTION_DOT":1.528e-5,"MEAN_MOTION_DDOT":0},{"OBJECT_NAME":"SWISSCUBE","OBJECT_ID":"2009-051B","EPOCH":"2026-04-26T17:12:25.424352","MEAN_MOTION":14.62378414,"ECCENTRICITY":0.0007358,"INCLINATION":98.4066,"RA_OF_ASC_NODE":23.7054,"ARG_OF_PERICENTER":23.3426,"MEAN_ANOMALY":336.8108,"EPHEMERIS_TYPE":0,"CLASSIFICATION_TYPE":"U","NORAD_CAT_ID":35932,"ELEMENT_SET_NO":999,"REV_AT_EPOCH":88163,"BSTAR":0.00024105,"MEAN_MOTION_DOT":1.169e-5,"MEAN_MOTION_DDOT":0},{"OBJECT_NAME":"BEESAT-1","OBJECT_ID":"2009-051C","EPOCH":"2026-04-26T16:47:50.856288","MEAN_MOTION":14.6163331,"ECCENTRICITY":0.0006112,"INCLINATION":98.3995,"RA_OF_ASC_NODE":23.4304,"ARG_OF_PERICENTER":38.3202,"MEAN_ANOMALY":321.8431,"EPHEMERIS_TYPE":0,"CLASSIFICATION_TYPE":"U","NORAD_CAT_ID":35933,"ELEMENT_SET_NO":999,"REV_AT_EPOCH":88166,"BSTAR":0.00020802,"MEAN_MOTION_DOT":9.86e-6,"MEAN_MOTION_DDOT":0},{"OBJECT_NAME":"ITUPSAT1","OBJECT_ID":"2009-051E","EPOCH":"2026-04-26T17:08:40.189920","MEAN_MOTION":14.60360188,"ECCENTRICITY":0.0008454,"INCLINATION":98.4081,"RA_OF_ASC_NODE":22.691,"ARG_OF_PERICENTER":45.2034,"MEAN_ANOMALY":314.9852,"EPHEMERIS_TYPE":0,"CLASSIFICATION_TYPE":"U","NORAD_CAT_ID":35935,"ELEMENT_SET_NO":999,"REV_AT_EPOCH":88122,"BSTAR":0.0001966,"MEAN_MOTION_DOT":9.02e-6,"MEAN_MOTION_DDOT":0},{"OBJECT_NAME":"XIWANG-1 (HOPE-1)","OBJECT_ID":"2009-072B","EPOCH":"2026-04-26T20:50:36.790368","MEAN_MOTION":13.16436287,"ECCENTRICITY":0.0007511,"INCLINATION":100.3986,"RA_OF_ASC_NODE":71.5297,"ARG_OF_PERICENTER":356.1436,"MEAN_ANOMALY":3.9618,"EPHEMERIS_TYPE":0,"CLASSIFICATION_TYPE":"U","NORAD_CAT_ID":36122,"ELEMENT_SET_NO":999,"REV_AT_EPOCH":78625,"BSTAR":-0.00069569,"MEAN_MOTION_DOT":-3.1e-6,"MEAN_MOTION_DDOT":0},{"OBJECT_NAME":"O/OREOS (USA 219)","OBJECT_ID":"2010-062C","EPOCH":"2026-04-26T15:00:52.080192","MEAN_MOTION":14.93532578,"ECCENTRICITY":0.0014177,"INCLINATION":71.9713,"RA_OF_ASC_NODE":197.1126,"ARG_OF_PERICENTER":172.6604,"MEAN_ANOMALY":187.4776,"EPHEMERIS_TYPE":0,"CLASSIFICATION_TYPE":"U","NORAD_CAT_ID":37224,"ELEMENT_SET_NO":999,"REV_AT_EPOCH":10894,"BSTAR":0.00024989,"MEAN_MOTION_DOT":2.576e-5,"MEAN_MOTION_DDOT":0},{"OBJECT_NAME":"JUGNU","OBJECT_ID":"2011-058B","EPOCH":"2026-04-26T16:42:25.718400","MEAN_MOTION":14.13760882,"ECCENTRICITY":0.0018441,"INCLINATION":19.961,"RA_OF_ASC_NODE":261.253,"ARG_OF_PERICENTER":227.8853,"MEAN_ANOMALY":160.6919,"EPHEMERIS_TYPE":0,"CLASSIFICATION_TYPE":"U","NORAD_CAT_ID":37839,"ELEMENT_SET_NO":999,"REV_AT_EPOCH":75173,"BSTAR":0.00011031,"MEAN_MOTION_DOT":4.79e-6,"MEAN_MOTION_DDOT":0},{"OBJECT_NAME":"SRMSAT","OBJECT_ID":"2011-058D","EPOCH":"2026-04-26T19:53:34.907136","MEAN_MOTION":14.11563225,"ECCENTRICITY":0.0011674,"INCLINATION":19.9735,"RA_OF_ASC_NODE":10.3299,"ARG_OF_PERICENTER":359.3388,"MEAN_ANOMALY":61.7748,"EPHEMERIS_TYPE":0,"CLASSIFICATION_TYPE":"U","NORAD_CAT_ID":37841,"ELEMENT_SET_NO":999,"REV_AT_EPOCH":75055,"BSTAR":8.5256e-5,"MEAN_MOTION_DOT":4.22e-6,"MEAN_MOTION_DDOT":0},{"OBJECT_NAME":"STRAND-1","OBJECT_ID":"2013-009E","EPOCH":"2026-04-26T11:10:40.191744","MEAN_MOTION":14.37131572,"ECCENTRICITY":0.00092207,"INCLINATION":98.3914,"RA_OF_ASC_NODE":297.9758,"ARG_OF_PERICENTER":32.965,"MEAN_ANOMALY":327.211,"EPHEMERIS_TYPE":0,"CLASSIFICATION_TYPE":"U","NORAD_CAT_ID":39090,"ELEMENT_SET_NO":999,"REV_AT_EPOCH":68963,"BSTAR":0.00011755274,"MEAN_MOTION_DOT":3.07e-6,"MEAN_MOTION_DDOT":0},{"OBJECT_NAME":"ZACUBE-1 (TSHEPISOSAT)","OBJECT_ID":"2013-066B","EPOCH":"2026-04-26T21:01:14.492352","MEAN_MOTION":15.00754252,"ECCENTRICITY":0.0044121,"INCLINATION":97.812,"RA_OF_ASC_NODE":78.9374,"ARG_OF_PERICENTER":64.7219,"MEAN_ANOMALY":295.8566,"EPHEMERIS_TYPE":0,"CLASSIFICATION_TYPE":"U","NORAD_CAT_ID":39417,"ELEMENT_SET_NO":999,"REV_AT_EPOCH":67303,"BSTAR":0.00043768,"MEAN_MOTION_DOT":5.604e-5,"MEAN_MOTION_DDOT":0},{"OBJECT_NAME":"GOMX-1","OBJECT_ID":"2013-066Q","EPOCH":"2026-04-26T20:08:32.565984","MEAN_MOTION":14.69261785,"ECCENTRICITY":0.0127605,"INCLINATION":97.6529,"RA_OF_ASC_NODE":320.5357,"ARG_OF_PERICENTER":242.2211,"MEAN_ANOMALY":116.6011,"EPHEMERIS_TYPE":0,"CLASSIFICATION_TYPE":"U","NORAD_CAT_ID":39430,"ELEMENT_SET_NO":999,"REV_AT_EPOCH":66237,"BSTAR":0.00023607,"MEAN_MOTION_DOT":1.524e-5,"MEAN_MOTION_DDOT":0},{"OBJECT_NAME":"CUBEBUG-2 (LO-74)","OBJECT_ID":"2013-066AA","EPOCH":"2026-04-26T19:28:38.752032","MEAN_MOTION":14.93396714,"ECCENTRICITY":0.005739,"INCLINATION":97.8872,"RA_OF_ASC_NODE":65.6004,"ARG_OF_PERICENTER":196.1145,"MEAN_ANOMALY":163.8251,"EPHEMERIS_TYPE":0,"CLASSIFICATION_TYPE":"U","NORAD_CAT_ID":39440,"ELEMENT_SET_NO":999,"REV_AT_EPOCH":66932,"BSTAR":0.00041417,"MEAN_MOTION_DOT":4.429e-5,"MEAN_MOTION_DDOT":0},{"OBJECT_NAME":"FUNCUBE-1 (AO-73)","OBJECT_ID":"2013-066AE","EPOCH":"2026-04-26T20:52:12.794592","MEAN_MOTION":15.08754845,"ECCENTRICITY":0.0037414,"INCLINATION":97.824,"RA_OF_ASC_NODE":87.2818,"ARG_OF_PERICENTER":21.1117,"MEAN_ANOMALY":339.1645,"EPHEMERIS_TYPE":0,"CLASSIFICATION_TYPE":"U","NORAD_CAT_ID":39444,"ELEMENT_SET_NO":999,"REV_AT_EPOCH":67192,"BSTAR":0.00066839,"MEAN_MOTION_DOT":0.00010608,"MEAN_MOTION_DDOT":0},{"OBJECT_NAME":"UWE-3","OBJECT_ID":"2013-066AG","EPOCH":"2026-04-26T19:23:12.433056","MEAN_MOTION":14.96591998,"ECCENTRICITY":0.0050581,"INCLINATION":97.8653,"RA_OF_ASC_NODE":72.5667,"ARG_OF_PERICENTER":129.9382,"MEAN_ANOMALY":230.6299,"EPHEMERIS_TYPE":0,"CLASSIFICATION_TYPE":"U","NORAD_CAT_ID":39446,"ELEMENT_SET_NO":999,"REV_AT_EPOCH":66989,"BSTAR":0.00036826,"MEAN_MOTION_DOT":4.242e-5,"MEAN_MOTION_DDOT":0}]
